{
  "norad_id": 39215,
  "name": "ALPHASAT",
  "history": [
    {
      "epoch": "2026-03-28T13:11:29.477472Z",
      "apogee_km": 35794.77268058356,
      "perigee_km": 35778.631980087914,
      "latitude_deg": 2.1595676087724156,
      "longitude_deg": 24.85589254571181,
      "height_km": 35778.43545969145,
      "semi_major_axis_km": 42164.83933033574,
      "eccentricity": 0.0001914,
      "inclination_deg": 2.9873,
      "raan_deg": 2.0687,
      "arg_perigee_deg": 24.9603,
      "mean_anomaly_deg": 21.6756,
      "mean_motion_rev_day": 1.00271402
    },
    {
      "epoch": "2026-03-29T02:53:00.684384Z",
      "apogee_km": 35794.84262073055,
      "perigee_km": 35778.38150269686,
      "latitude_deg": -2.8332964965516205,
      "longitude_deg": 24.855222037764857,
      "height_km": 35792.16378494483,
      "semi_major_axis_km": 42164.74906171371,
      "eccentricity": 0.0001952,
      "inclination_deg": 2.9869,
      "raan_deg": 2.0205,
      "arg_perigee_deg": 25.9666,
      "mean_anomaly_deg": 226.6663,
      "mean_motion_rev_day": 1.00271724
    },
    {
      "epoch": "2026-03-29T23:11:38.732928Z",
      "apogee_km": 35794.96434467191,
      "perigee_km": 35777.58417435075,
      "latitude_deg": -0.9243079300660207,
      "longitude_deg": 24.877435163794306,
      "height_km": 35794.50192952292,
      "semi_major_axis_km": 42164.41125951133,
      "eccentricity": 0.0002061,
      "inclination_deg": 2.9873,
      "raan_deg": 2.046,
      "arg_perigee_deg": 27.4259,
      "mean_anomaly_deg": 170.6772,
      "mean_motion_rev_day": 1.00272929
    },
    {
      "epoch": "2026-03-29T23:11:38.733792Z",
      "apogee_km": 35794.96434467191,
      "perigee_km": 35777.58417435075,
      "latitude_deg": -0.9243079300775403,
      "longitude_deg": 24.87743155392576,
      "height_km": 35794.50192952295,
      "semi_major_axis_km": 42164.41125951133,
      "eccentricity": 0.0002061,
      "inclination_deg": 2.9873,
      "raan_deg": 2.046,
      "arg_perigee_deg": 27.4259,
      "mean_anomaly_deg": 170.6772,
      "mean_motion_rev_day": 1.00272929
    },
    {
      "epoch": "2026-03-30T06:15:54.504000Z",
      "apogee_km": 35795.11088236063,
      "perigee_km": 35776.92295292671,
      "latitude_deg": -2.442705368393571,
      "longitude_deg": 24.908219383492643,
      "height_km": 35785.03661913617,
      "semi_major_axis_km": 42164.15391764367,
      "eccentricity": 0.00021568,
      "inclination_deg": 2.9868,
      "raan_deg": 1.9714,
      "arg_perigee_deg": 29.589,
      "mean_anomaly_deg": 274.9475,
      "mean_motion_rev_day": 1.00273847
    },
    {
      "epoch": "2026-03-30T13:06:32.685696Z",
      "apogee_km": 35795.20391465893,
      "perigee_km": 35776.94934001112,
      "latitude_deg": 2.188357209425996,
      "longitude_deg": 24.866825503005128,
      "height_km": 35776.591013766294,
      "semi_major_axis_km": 42164.213627335026,
      "eccentricity": 0.00021647,
      "inclination_deg": 2.9871,
      "raan_deg": 1.983,
      "arg_perigee_deg": 30.1108,
      "mean_anomaly_deg": 17.3553,
      "mean_motion_rev_day": 1.00273634
    },
    {
      "epoch": "2026-03-31T06:13:24.216384Z",
      "apogee_km": 35795.46793449466,
      "perigee_km": 35777.85991362878,
      "latitude_deg": -2.4295736658650084,
      "longitude_deg": 24.90780413211342,
      "height_km": 35785.70913545967,
      "semi_major_axis_km": 42164.800924061725,
      "eccentricity": 0.0002088,
      "inclination_deg": 2.9869,
      "raan_deg": 1.9425,
      "arg_perigee_deg": 29.9811,
      "mean_anomaly_deg": 274.9427,
      "mean_motion_rev_day": 1.00271539
    },
    {
      "epoch": "2026-04-01T16:27:02.219040Z",
      "apogee_km": 35795.79420317954,
      "perigee_km": 35778.278790109034,
      "latitude_deg": 2.9225446400000212,
      "longitude_deg": 24.922080838573223,
      "height_km": 35782.156735564706,
      "semi_major_axis_km": 42165.17349664429,
      "eccentricity": 0.0002077,
      "inclination_deg": 2.9873,
      "raan_deg": 1.9258,
      "arg_perigee_deg": 37.4961,
      "mean_anomaly_deg": 62.2535,
      "mean_motion_rev_day": 1.0027021
    },
    {
      "epoch": "2026-04-02T19:49:57.556704Z",
      "apogee_km": 35795.83845983429,
      "perigee_km": 35777.90989708121,
      "latitude_deg": 1.4030265240712303,
      "longitude_deg": 24.93431225112365,
      "height_km": 35789.6641401407,
      "semi_major_axis_km": 42165.01117845775,
      "eccentricity": 0.0002126,
      "inclination_deg": 2.988,
      "raan_deg": 1.9527,
      "arg_perigee_deg": 39.188,
      "mean_anomaly_deg": 112.384,
      "mean_motion_rev_day": 1.00270789
    },
    {
      "epoch": "2026-04-02T21:32:40.206048Z",
      "apogee_km": 35795.82765916959,
      "perigee_km": 35777.903316611984,
      "latitude_deg": 0.12812113759585866,
      "longitude_deg": 24.899004245227545,
      "height_km": 35793.07932179029,
      "semi_major_axis_km": 42165.002487890786,
      "eccentricity": 0.00021255,
      "inclination_deg": 2.988,
      "raan_deg": 1.9602,
      "arg_perigee_deg": 39.0598,
      "mean_anomaly_deg": 138.2525,
      "mean_motion_rev_day": 1.0027082
    },
    {
      "epoch": "2026-04-03T19:47:29.647680Z",
      "apogee_km": 35795.9259819236,
      "perigee_km": 35777.51680474907,
      "latitude_deg": 1.3874096722507618,
      "longitude_deg": 24.92985373934887,
      "height_km": 35789.25577667663,
      "semi_major_axis_km": 42164.85839333634,
      "eccentricity": 0.0002183,
      "inclination_deg": 2.9882,
      "raan_deg": 1.9816,
      "arg_perigee_deg": 41.8497,
      "mean_anomaly_deg": 110.0582,
      "mean_motion_rev_day": 1.00271334
    }
  ]
}